NORAD_CAT_ID,OBJECT_NAME,OBJECT_TYPE,EPOCH,MEAN_MOTION,ECCENTRICITY,INCLINATION,RA_OF_ASC_NODE,ARG_OF_PERICENTER,MEAN_ANOMALY,BSTAR,MEAN_MOTION_DOT,MEAN_MOTION_DDOT,TLE_LINE0,TLE_LINE1,TLE_LINE2,SEMIMAJOR_AXIS,PERIOD,APOGEE,PERIGEE,DECAYED
55288.0,STARLINK-5311,PAYLOAD,2023-07-01 09:45:40,14.98327126,0.0003287,70.0,341.1025,271.4403,88.638,-4.787e-05,-6.64e-06,0.0,0 STARLINK-5311,1 55288U 23010V   23182.40671457 -.00000664  00000-0 -47870-4 0  9992,2 55288  70.0000 341.1025 0003287 271.4403  88.6380 14.98327126 25827,6950.202,96.107,574.351,569.782,0.0
55288.0,STARLINK-5311,PAYLOAD,2023-07-02 16:12:12,14.98333494,0.0003273,70.0002,337.9044,271.3648,88.7136,-5.3668e-06,-1.57e-06,0.0,0 STARLINK-5311,1 55288U 23010V   23183.67514914 -.00000157  00000-0 -53668-5 0  9996,2 55288  70.0002 337.9044 0003273 271.3648  88.7136 14.98333494 26015,6950.182,96.107,574.322,569.772,0.0
55288.0,STARLINK-5311,PAYLOAD,2023-07-03 17:50:22,14.98328096,0.0003296,70.0002,335.211,270.6983,89.3798,2.7553e-05,2.36e-06,0.0,0 STARLINK-5311,1 55288U 23010V   23184.74331102  .00000236  00000-0  27553-4 0  9990,2 55288  70.0002 335.2110 0003296 270.6983  89.3798 14.98328096 26179,6950.199,96.107,574.355,569.773,0.0
55288.0,STARLINK-5311,PAYLOAD,2023-07-04 19:28:31,14.98330065,0.0003249,70.0004,332.5177,269.2152,90.8635,-1.4216e-05,-2.63e-06,0.0,0 STARLINK-5311,1 55288U 23010V   23185.81147104 -.00000263  00000-0 -14216-4 0  9990,2 55288  70.0004 332.5177 0003249 269.2152  90.8635 14.98330065 26338,6950.193,96.107,574.316,569.8,0.0
55288.0,STARLINK-5311,PAYLOAD,2023-07-05 19:30:31,14.98331188,0.0003408,70.0002,329.9927,270.7173,89.3595,1.3451e-05,6.7e-07,0.0,0 STARLINK-5311,1 55288U 23010V   23186.81286908  .00000067  00000-0  13451-4 0  9997,2 55288  70.0002 329.9927 0003408 270.7173  89.3595 14.98331188 26487,6950.189,96.107,574.423,569.686,0.0
55288.0,STARLINK-5311,PAYLOAD,2023-07-07 09:57:45,14.98330447,0.0003401,70.0002,325.9528,271.3176,88.7593,5.5421e-06,-2.7e-07,0.0,0 STARLINK-5311,1 55288U 23010V   23188.41510772 -.00000027  00000-0  55421-5 0  9995,2 55288  70.0002 325.9528 0003401 271.3176  88.7593 14.98330447 26728,6950.192,96.107,574.42,569.693,0.0
55288.0,STARLINK-5311,PAYLOAD,2023-07-08 18:00:26,14.98329681,0.0003264,70.0006,322.587,269.2623,90.8162,-4.3751e-05,-6.15e-06,0.0,0 STARLINK-5311,1 55288U 23010V   23189.75030782 -.00000615  00000-0 -43751-4 0  9997,2 55288  70.0006 322.5870 0003264 269.2623  90.8162 14.98329681 26921,6950.194,96.107,574.327,569.79,0.0
55288.0,STARLINK-5311,PAYLOAD,2023-07-09 18:02:27,14.98325245,0.000329,70.0006,320.062,269.3114,90.7668,-7.6989e-05,-1.011e-05,0.0,0 STARLINK-5311,1 55288U 23010V   23190.75171287 -.00001011  00000-0 -76989-4 0  9995,2 55288  70.0006 320.0620 0003290 269.3114  90.7668 14.98325245 27071,6950.208,96.107,574.359,569.786,0.0
55288.0,STARLINK-5311,PAYLOAD,2023-07-10 10:03:48,14.98329682,0.0003427,70.0004,318.3784,269.9298,90.1469,5.7707e-05,5.96e-06,0.0,0 STARLINK-5311,1 55288U 23010V   23191.41930681  .00000596  00000-0  57707-4 0  9992,2 55288  70.0004 318.3784 0003427 269.9298  90.1469 14.98329682 27174,6950.194,96.107,574.441,569.677,0.0
55288.0,STARLINK-5311,PAYLOAD,2023-07-11 10:05:49,14.98322821,0.0003657,70.0,315.8524,268.8185,91.2555,0.00015282,1.731e-05,0.0,0 STARLINK-5311,1 55288U 23010V   23192.42070727  .00001731  00000-0  15282-3 0  9993,2 55288  70.0000 315.8524 0003657 268.8185  91.2555 14.98322821 27325,6950.215,96.107,574.622,569.538,0.0
55288.0,STARLINK-5311,PAYLOAD,2023-07-11 14:54:13,14.98333865,0.0003559,70.0,315.3475,270.0143,90.0609,-1.883e-05,-3.18e-06,0.0,0 STARLINK-5311,1 55288U 23010V   23192.62098556 -.00000318  00000-0 -18830-4 0  9990,2 55288  70.0000 315.3475 0003559 270.0143  90.0609 14.98333865 27355,6950.181,96.107,574.52,569.572,0.0
55288.0,STARLINK-5311,PAYLOAD,2023-07-12 18:08:29,14.98336025,0.0003413,70.0005,312.4866,271.2271,88.8497,-6.6363e-06,-1.72e-06,0.0,0 STARLINK-5311,1 55288U 23010V   23193.75590205 -.00000172  00000-0 -66363-5 0  9996,2 55288  70.0005 312.4866 0003413 271.2271  88.8497 14.98336025 27526,6950.174,96.107,574.411,569.667,0.0
55288.0,STARLINK-5311,PAYLOAD,2023-07-13 16:34:23,14.98327774,0.0003208,70.0009,310.1314,268.2744,91.8047,-3.8323e-05,-5.5e-06,0.0,0 STARLINK-5311,1 55288U 23010V   23194.69054756 -.00000550  00000-0 -38323-4 0  9990,2 55288  70.0009 310.1314 0003208 268.2744  91.8047 14.98327774 27667,6950.2,96.107,574.294,569.835,0.0
55288.0,STARLINK-5311,PAYLOAD,2023-07-14 18:12:32,14.98321234,0.0003244,70.0002,307.4362,274.0329,86.0459,0.00018154,2.073e-05,0.0,0 STARLINK-5311,1 55288U 23010V   23195.75870530  .00002073  00000-0  18154-3 0  9993,2 55288  70.0002 307.4362 0003244 274.0329  86.0459 14.98321234 27822,6950.22,96.108,574.34,569.83,0.0
55288.0,STARLINK-5311,PAYLOAD,2023-07-16 08:39:46,14.98322458,0.000362,70.0001,303.3971,269.5335,90.5409,5.0744e-05,5.12e-06,0.0,0 STARLINK-5311,1 55288U 23010V   23197.36094979  .00000512  00000-0  50744-4 0  9995,2 55288  70.0001 303.3971 0003620 269.5335  90.5409 14.98322458 28067,6950.216,96.107,574.597,569.565,0.0
55288.0,STARLINK-5311,PAYLOAD,2023-07-17 16:42:26,14.98340651,0.0003545,69.9999,300.0307,268.8494,91.2258,9.3467e-05,1.023e-05,0.0,0 STARLINK-5311,1 55288U 23010V   23198.69613649  .00001023  00000-0  93467-4 0  9990,2 55288  69.9999 300.0307 0003545 268.8494  91.2258 14.98340651 28268,6950.16,96.106,574.489,569.561,0.0
55288.0,STARLINK-5311,PAYLOAD,2023-07-18 10:19:55,14.98328123,0.0003497,70.0001,298.1792,268.6508,91.4251,2.8095e-05,2.42e-06,0.0,0 STARLINK-5311,1 55288U 23010V   23199.43050496  .00000242  00000-0  28095-4 0  9995,2 55288  70.0001 298.1792 0003497 268.6508  91.4251 14.98328123 28377,6950.199,96.107,574.494,569.633,0.0
55288.0,STARLINK-5311,PAYLOAD,2023-07-18 15:08:19,14.98335289,0.0003484,70.0,297.6741,268.538,91.538,6.7132e-05,7.08e-06,0.0,0 STARLINK-5311,1 55288U 23010V   23199.63077895  .00000708  00000-0  67132-4 0  9991,2 55288  70.0000 297.6741 0003484 268.5380  91.5380 14.98335289 28406,6950.177,96.107,574.463,569.62,0.0
55288.0,STARLINK-5311,PAYLOAD,2023-07-19 10:21:56,14.98327795,0.0003029,70.0012,295.6548,264.6764,95.4049,-0.00013103,-1.656e-05,0.0,0 STARLINK-5311,1 55288U 23010V   23200.43190917 -.00001656  00000-0 -13103-3 0  9996,2 55288  70.0012 295.6548 0003029 264.6764  95.4049 14.98327795 28521,6950.2,96.107,574.17,569.959,0.0
55288.0,STARLINK-5311,PAYLOAD,2023-07-20 13:36:13,14.98334524,0.0003471,69.9999,292.7928,271.2234,88.8527,3.3394e-05,3.05e-06,0.0,0 STARLINK-5311,1 55288U 23010V   23201.56682066  .00000305  00000-0  33394-4 0  9995,2 55288  69.9999 292.7928 0003471 271.2234  88.8527 14.98334524 28692,6950.179,96.107,574.456,569.631,0.0
55288.0,STARLINK-5311,PAYLOAD,2023-07-21 13:38:14,14.98327169,0.0003547,69.9998,290.2679,272.3809,87.6944,6.8406e-05,7.23e-06,0.0,0 STARLINK-5311,1 55288U 23010V   23202.56822361  .00000723  00000-0  68406-4 0  9996,2 55288  69.9998 290.2679 0003547 272.3809  87.6944 14.98327169 28845,6950.202,96.107,574.532,569.601,0.0
55288.0,STARLINK-5311,PAYLOAD,2023-07-23 16:54:32,14.98321185,0.000334,69.9996,284.8817,269.8758,90.2018,0.00013918,1.568e-05,0.0,0 STARLINK-5311,1 55288U 23010V   23204.70454515  .00001568  00000-0  13918-3 0  9991,2 55288  69.9996 284.8817 0003340 269.8758  90.2018 14.98321185 29475,6950.22,96.108,574.407,569.764,0.0
55288.0,STARLINK-5311,PAYLOAD,2023-07-25 12:10:10,14.9832643,0.0003455,69.9998,280.3375,270.5085,89.5678,-4.9999e-05,-6.9e-06,0.0,0 STARLINK-5311,1 55288U 23010V   23206.50706338 -.00000690  00000-0 -49999-4 0  9990,2 55288  69.9998 280.3375 0003455 270.5085  89.5678 14.98326430 29747,6950.204,96.107,574.47,569.668,0.0
55288.0,STARLINK-5311,PAYLOAD,2023-07-26 07:23:46,14.98326639,0.0003588,69.9992,278.3173,268.1635,91.9113,4.9861e-05,5.02e-06,0.0,0 STARLINK-5311,1 55288U 23010V   23207.30817736  .00000502  00000-0  49861-4 0  9992,2 55288  69.9992 278.3173 0003588 268.1635  91.9113 14.98326639 29860,6950.203,96.107,574.562,569.575,0.0
55288.0,STARLINK-5311,PAYLOAD,2023-07-26 17:00:34,14.98331971,0.0003577,69.9991,277.3061,269.9831,90.0918,9.7518e-05,1.071e-05,0.0,0 STARLINK-5311,1 55288U 23010V   23207.70873298  .00001071  00000-0  97518-4 0  9995,2 55288  69.9991 277.3061 0003577 269.9831  90.0918 14.98331971 29924,6950.187,96.107,574.538,569.566,0.0
55288.0,STARLINK-5311,PAYLOAD,2023-07-26 21:48:59,14.9831104,0.0003448,69.9989,276.8011,269.7231,90.3533,0.00030569,3.555e-05,0.0,0 STARLINK-5311,1 55288U 23010V   23207.90902017  .00003555  00000-0  30569-3 0  9990,2 55288  69.9989 276.8011 0003448 269.7231  90.3533 14.98311040 29649,6950.252,96.108,574.513,569.72,0.0
55288.0,STARLINK-5311,PAYLOAD,2023-07-27 10:38:03,14.98325818,0.0003563,69.9991,275.4553,270.4267,89.6484,-5.2267e-06,-1.55e-06,0.0,0 STARLINK-5311,1 55288U 23010V   23208.44310066 -.00000155  00000-0 -52267-5 0  9993,2 55288  69.9991 275.4553 0003563 270.4267  89.6484 14.98325818 29727,6950.206,96.107,574.547,569.594,0.0
55288.0,STARLINK-5311,PAYLOAD,2023-07-27 21:51:00,14.98322703,0.0003468,69.9993,274.2772,271.3497,88.7264,-3.6798e-05,-5.32e-06,0.0,0 STARLINK-5311,1 55288U 23010V   23208.91042463 -.00000532  00000-0 -36798-4 0  9997,2 55288  69.9993 274.2772 0003468 271.3497  88.7264 14.98322703 30108,6950.215,96.107,574.491,569.67,0.0
55288.0,STARLINK-5311,PAYLOAD,2023-07-28 07:27:49,14.98322869,0.0003651,69.9981,273.2661,271.0028,89.0713,-6.7087e-05,-8.93e-06,0.0,0 STARLINK-5311,1 55288U 23010V   23209.31098575 -.00000893  00000-0 -67087-4 0  9992,2 55288  69.9981 273.2661 0003651 271.0028  89.0713 14.98322869 30164,6950.215,96.107,574.617,569.542,0.0
55288.0,STARLINK-5311,PAYLOAD,2023-07-28 15:28:29,14.98324642,0.0003644,69.9982,272.4249,270.6221,89.4521,-3.5341e-05,-5.15e-06,0.0,0 STARLINK-5311,1 55288U 23010V   23209.64478490 -.00000515  00000-0 -35341-4 0  9995,2 55288  69.9982 272.4249 0003644 270.6221  89.4521 14.98324642 29902,6950.209,96.107,574.607,569.542,0.0
